{"type": "FeatureCollection", "features": [ {"type": "Feature", "properties": {"norad_id": 34468, "name": "COSMOS 2251 DEB", "group": "cosmos-2251-debris", "lat": -24.408676540806905, "lon": 95.68291746972727, "alt_km": 736.3538927367645, "timestamp": "2025-12-20T05:41:50.425740+00:00", "meta": {"OBJECT_NAME": "COSMOS 2251 DEB", "OBJECT_ID": "1993-036TM", "EPOCH": "2025-12-19T09:54:44.826048", "MEAN_MOTION": 14.47641449, "ECCENTRICITY": 0.0076316, "INCLINATION": 74.013, "RA_OF_ASC_NODE": 104.7021, "ARG_OF_PERICENTER": 248.268, "MEAN_ANOMALY": 111.0344, "EPHEMERIS_TYPE": 0, "CLASSIFICATION_TYPE": "U", "NORAD_CAT_ID": 34468, "ELEMENT_SET_NO": 999, "REV_AT_EPOCH": 88558, "BSTAR": 0.00025058, "MEAN_MOTION_DOT": 9.28e-06, "MEAN_MOTION_DDOT": 0}, "tle": {"line1": "1 34468U 93036TM  25353.41301882  .00000928  00000+0  25058-3 0  9992", "line2": "2 34468  74.0130 104.7021 0076316 248.2680 111.0344 14.47641449885582"}}, "geometry": {"type": "Point", "coordinates": [95.68291746972727, -24.408676540806905]}}, {"type": "Feature", "properties": {"norad_id": 34472, "name": "COSMOS 2251 DEB", "group": "cosmos-2251-debris", "lat": 65.24037856651113, "lon": 124.03131934872924, "alt_km": 1185.440787062823, "timestamp": "2025-12-20T05:41:50.425751+00:00", "meta": {"OBJECT_NAME": "COSMOS 2251 DEB", "OBJECT_ID": "1993-036TR", "EPOCH": "2025-12-18T16:32:15.678240", "MEAN_MOTION": 13.70339087, "ECCENTRICITY": 0.03278808, "INCLINATION": 74.0847, "RA_OF_ASC_NODE": 88.3603, "ARG_OF_PERICENTER": 218.0804, "MEAN_ANOMALY": 139.6734, "EPHEMERIS_TYPE": 0, "CLASSIFICATION_TYPE": "U", "NORAD_CAT_ID": 34472, "ELEMENT_SET_NO": 999, "REV_AT_EPOCH": 83808, "BSTAR": 0.00051678335, "MEAN_MOTION_DOT": 6.44e-06, "MEAN_MOTION_DDOT": 0}, "tle": {"line1": "1 34472U 93036TR  25352.68907035  .00000644  00000+0  51678-3 0  9999", "line2": "2 34472  74.0847  88.3603 0327880 218.0804 139.6734 13.70339087838082"}}, "geometry": {"type": "Point", "coordinates": [124.03131934872924, 65.24037856651113]}}, {"type": "Feature", "properties": {"norad_id": 34474, "name": "COSMOS 2251 DEB", "group": "cosmos-2251-debris", "lat": 69.5479775984537, "lon": 83.14401746701435, "alt_km": 831.4280722089889, "timestamp": "2025-12-20T05:41:50.425761+00:00", "meta": {"OBJECT_NAME": "COSMOS 2251 DEB", "OBJECT_ID": "1993-036TT", "EPOCH": "2025-12-19T22:39:05.472576", "MEAN_MOTION": 14.0646511, "ECCENTRICITY": 0.01989518, "INCLINATION": 74.0782, "RA_OF_ASC_NODE": 313.6007, "ARG_OF_PERICENTER": 25.6526, "MEAN_ANOMALY": 29.2244, "EPHEMERIS_TYPE": 0, "CLASSIFICATION_TYPE": "U", "NORAD_CAT_ID": 34474, "ELEMENT_SET_NO": 999, "REV_AT_EPOCH": 85610, "BSTAR": 0.0017513812, "MEAN_MOTION_DOT": 3.442e-05, "MEAN_MOTION_DDOT": 0}, "tle": {"line1": "1 34474U 93036TT  25353.94381334  .00003442  00000+0  17514-2 0  9998", "line2": "2 34474  74.0782 313.6007 0198951  25.6526  29.2244 14.06465110856102"}}, "geometry": {"type": "Point", "coordinates": [83.14401746701435, 69.5479775984537]}}, {"type": "Feature", "properties": {"norad_id": 34476, "name": "COSMOS 2251 DEB", "group": "cosmos-2251-debris", "lat": 44.0980678501586, "lon": -126.27128277721252, "alt_km": 1163.483490566111, "timestamp": "2025-12-20T05:41:50.425771+00:00", "meta": {"OBJECT_NAME": "COSMOS 2251 DEB", "OBJECT_ID": "1993-036TV", "EPOCH": "2025-12-19T15:07:53.916960", "MEAN_MOTION": 13.82094314, "ECCENTRICITY": 0.0321638, "INCLINATION": 74.0055, "RA_OF_ASC_NODE": 70.8879, "ARG_OF_PERICENTER": 289.0132, "MEAN_ANOMALY": 67.6405, "EPHEMERIS_TYPE": 0, "CLASSIFICATION_TYPE": "U", "NORAD_CAT_ID": 34476, "ELEMENT_SET_NO": 999, "REV_AT_EPOCH": 83733, "BSTAR": 0.0025746, "MEAN_MOTION_DOT": 4.089e-05, "MEAN_MOTION_DDOT": 0}, "tle": {"line1": "1 34476U 93036TV  25353.63048515  .00004089  00000+0  25746-2 0  9991", "line2": "2 34476  74.0055  70.8879 0321638 289.0132  67.6405 13.82094314837331"}}, "geometry": {"type": "Point", "coordinates": [-126.27128277721252, 44.0980678501586]}}, {"type": "Feature", "properties": {"norad_id": 34477, "name": "COSMOS 2251 DEB", "group": "cosmos-2251-debris", "lat": -62.629400846417994, "lon": -91.07382216773155, "alt_km": 655.9231930446076, "timestamp": "2025-12-20T05:41:50.425782+00:00", "meta": {"OBJECT_NAME": "COSMOS 2251 DEB", "OBJECT_ID": "1993-036TW", "EPOCH": "2025-12-19T14:25:44.022144", "MEAN_MOTION": 14.56908213, "ECCENTRICITY": 0.0076837, "INCLINATION": 73.979, "RA_OF_ASC_NODE": 56.4262, "ARG_OF_PERICENTER": 242.32, "MEAN_ANOMALY": 269.6978, "EPHEMERIS_TYPE": 0, "CLASSIFICATION_TYPE": "U", "NORAD_CAT_ID": 34477, "ELEMENT_SET_NO": 999, "REV_AT_EPOCH": 88725, "BSTAR": 0.00052064, "MEAN_MOTION_DOT": 2.401e-05, "MEAN_MOTION_DDOT": 0}, "tle": {"line1": "1 34477U 93036TW  25353.60120396  .00002401  00000+0  52064-3 0  9997", "line2": "2 34477  73.9790  56.4262 0076837 242.3200 269.6978 14.56908213887257"}}, "geometry": {"type": "Point", "coordinates": [-91.07382216773155, -62.629400846417994]}}, {"type": "Feature", "properties": {"norad_id": 34478, "name": "COSMOS 2251 DEB", "group": "cosmos-2251-debris", "lat": 65.86431682319053, "lon": 31.14689478836205, "alt_km": 551.6757616027553, "timestamp": "2025-12-20T05:41:50.425792+00:00", "meta": {"OBJECT_NAME": "COSMOS 2251 DEB", "OBJECT_ID": "1993-036TX", "EPOCH": "2025-12-19T04:27:46.708992", "MEAN_MOTION": 15.08510334, "ECCENTRICITY": 0.0034275, "INCLINATION": 74.0409, "RA_OF_ASC_NODE": 353.6176, "ARG_OF_PERICENTER": 213.3529, "MEAN_ANOMALY": 270.9757, "EPHEMERIS_TYPE": 0, "CLASSIFICATION_TYPE": "U", "NORAD_CAT_ID": 34478, "ELEMENT_SET_NO": 999, "REV_AT_EPOCH": 89070, "BSTAR": 0.0020795, "MEAN_MOTION_DOT": 0.00033001, "MEAN_MOTION_DDOT": 0}, "tle": {"line1": "1 34478U 93036TX  25353.18595728  .00033001  00000+0  20795-2 0  9991", "line2": "2 34478  74.0409 353.6176 0034275 213.3529 270.9757 15.08510334890700"}}, "geometry": {"type": "Point", "coordinates": [31.14689478836205, 65.86431682319053]}}, {"type": "Feature", "properties": {"norad_id": 34481, "name": "COSMOS 2251 DEB", "group": "cosmos-2251-debris", "lat": 34.51390886304993, "lon": -151.67284939709813, "alt_km": 761.9992959388537, "timestamp": "2025-12-20T05:41:50.425803+00:00", "meta": {"OBJECT_NAME": "COSMOS 2251 DEB", "OBJECT_ID": "1993-036UA", "EPOCH": "2025-12-19T07:49:19.232256", "MEAN_MOTION": 14.32573647, "ECCENTRICITY": 0.007051, "INCLINATION": 73.9803, "RA_OF_ASC_NODE": 41.3906, "ARG_OF_PERICENTER": 214.5349, "MEAN_ANOMALY": 271.1757, "EPHEMERIS_TYPE": 0, "CLASSIFICATION_TYPE": "U", "NORAD_CAT_ID": 34481, "ELEMENT_SET_NO": 999, "REV_AT_EPOCH": 87543, "BSTAR": 0.00046396, "MEAN_MOTION_DOT": 1.268e-05, "MEAN_MOTION_DDOT": 0}, "tle": {"line1": "1 34481U 93036UA  25353.32591704  .00001268  00000+0  46396-3 0  9997", "line2": "2 34481  73.9803  41.3906 0070510 214.5349 271.1757 14.32573647875435"}}, "geometry": {"type": "Point", "coordinates": [-151.67284939709813, 34.51390886304993]}}, {"type": "Feature", "properties": {"norad_id": 34482, "name": "COSMOS 2251 DEB", "group": "cosmos-2251-debris", "lat": -42.0476963781015, "lon": 44.035893593775604, "alt_km": 646.6272718927439, "timestamp": "2025-12-20T05:41:50.425813+00:00", "meta": {"OBJECT_NAME": "COSMOS 2251 DEB", "OBJECT_ID": "1993-036UB", "EPOCH": "2025-12-19T01:35:20.190624", "MEAN_MOTION": 14.69302815, "ECCENTRICITY": 0.00446477, "INCLINATION": 74.0361, "RA_OF_ASC_NODE": 211.3413, "ARG_OF_PERICENTER": 270.1268, "MEAN_ANOMALY": 241.8622, "EPHEMERIS_TYPE": 0, "CLASSIFICATION_TYPE": "U", "NORAD_CAT_ID": 34482, "ELEMENT_SET_NO": 999, "REV_AT_EPOCH": 88280, "BSTAR": 0.0012618865, "MEAN_MOTION_DOT": 7.539e-05, "MEAN_MOTION_DDOT": 0}, "tle": {"line1": "1 34482U 93036UB  25353.06620591  .00007539  00000+0  12619-2 0  9993", "line2": "2 34482  74.0361 211.3413 0044647 270.1268 241.8622 14.69302815882800"}}, "geometry": {"type": "Point", "coordinates": [44.035893593775604, -42.0476963781015]}}, {"type": "Feature", "properties": {"norad_id": 34544, "name": "COSMOS 2251 DEB", "group": "cosmos-2251-debris", "lat": -72.4069288377554, "lon": 77.39477139121453, "alt_km": 851.1261591565435, "timestamp": "2025-12-20T05:41:50.425824+00:00", "meta": {"OBJECT_NAME": "COSMOS 2251 DEB", "OBJECT_ID": "1993-036UE", "EPOCH": "2025-12-19T21:39:33.180768", "MEAN_MOTION": 13.54668378, "ECCENTRICITY": 0.03837931, "INCLINATION": 73.914, "RA_OF_ASC_NODE": 192.4334, "ARG_OF_PERICENTER": 219.5638, "MEAN_ANOMALY": 207.4937, "EPHEMERIS_TYPE": 0, "CLASSIFICATION_TYPE": "U", "NORAD_CAT_ID": 34544, "ELEMENT_SET_NO": 999, "REV_AT_EPOCH": 82979, "BSTAR": 0.00031104972, "MEAN_MOTION_DOT": 3.18e-06, "MEAN_MOTION_DDOT": 0}, "tle": {"line1": "1 34544U 93036UE  25353.90246737  .00000318  00000+0  31105-3 0  9991", "line2": "2 34544  73.9140 192.4334 0383793 219.5638 207.4937 13.54668378829797"}}, "geometry": {"type": "Point", "coordinates": [77.39477139121453, -72.4069288377554]}}, {"type": "Feature", "properties": {"norad_id": 34546, "name": "COSMOS 2251 DEB", "group": "cosmos-2251-debris", "lat": 41.24277134876914, "lon": 40.666444707291966, "alt_km": 752.4409558577527, "timestamp": "2025-12-20T05:41:50.425834+00:00", "meta": {"OBJECT_NAME": "COSMOS 2251 DEB", "OBJECT_ID": "1993-036UG", "EPOCH": "2025-12-19T11:03:09.535392", "MEAN_MOTION": 14.45438225, "ECCENTRICITY": 0.0022033, "INCLINATION": 74.0308, "RA_OF_ASC_NODE": 236.6546, "ARG_OF_PERICENTER": 309.733, "MEAN_ANOMALY": 106.1055, "EPHEMERIS_TYPE": 0, "CLASSIFICATION_TYPE": "U", "NORAD_CAT_ID": 34546, "ELEMENT_SET_NO": 999, "REV_AT_EPOCH": 88123, "BSTAR": 0.00040131, "MEAN_MOTION_DOT": 1.39e-05, "MEAN_MOTION_DDOT": 0}, "tle": {"line1": "1 34546U 93036UG  25353.46052703  .00001390  00000+0  40131-3 0  9992", "line2": "2 34546  74.0308 236.6546 0022033 309.7330 106.1055 14.45438225881231"}}, "geometry": {"type": "Point", "coordinates": [40.666444707291966, 41.24277134876914]}}]}